IRIDIUM 112             
1 41925U 17003J   25059.33553417  .00000553  00000+0  19027-3 0  9998
2 41925  86.3927 286.3046 0002079  92.0288 268.1146 14.34217400425380
IRIDIUM 111             
1 41926U 17003K   25059.11354375  .00000049  00000+0  10389-4 0  9990
2 41926  86.3931 286.4576 0002205  84.6144 275.5304 14.34216524425377
IRIDIUM 113             
1 42803U 17039A   25058.53536029  .00000158  00000+0  49494-4 0  9997
2 42803  86.4041 160.5588 0002283 107.8860 252.2585 14.34218642403157
IRIDIUM 123             
1 42804U 17039B   25058.64660549  .00000454  00000+0  15520-3 0  9996
2 42804  86.4032 191.9283 0002287  89.4866 270.6592 14.34218627401932
IRIDIUM 120             
1 42805U 17039C   25058.52901758  .00000038  00000+0  64860-5 0  9995
2 42805  86.4035 160.4059 0002081  89.4709 270.6725 14.34218056403145
IRIDIUM 115             
1 42806U 17039D   25059.31162669  .00001237  00000+0  36160-3 0  9996
2 42806  86.4569 160.1424 0002717  86.6613 273.4898 14.43284719405918
IRIDIUM 118             
1 42807U 17039E   25058.60855179  .00000191  00000+0  61083-4 0  9994
2 42807  86.4030 191.9441 0002024  98.7249 261.4176 14.34218552401939
IRIDIUM 117             
1 42808U 17039F   25058.83688460  .00000131  00000+0  39807-4 0  9990
2 42808  86.4027 191.8109 0002359  91.3587 268.7879 14.34218968401987
